[{"OBJECT_NAME":"STARLINK-2099","OBJECT_ID":"2021-005AG","EPOCH":"2026-03-09T05:25:23.086560","MEAN_MOTION":15.30188698,"ECCENTRICITY":0.00013497,"INCLINATION":53.1612,"RA_OF_ASC_NODE":15.6956,"ARG_OF_PERICENTER":92.1215,"MEAN_ANOMALY":267.9941,"EPHEMERIS_TYPE":0,"CLASSIFICATION_TYPE":"U","NORAD_CAT_ID":47379,"ELEMENT_SET_NO":999,"REV_AT_EPOCH":28365,"BSTAR":2.4152043e-5,"MEAN_MOTION_DOT":3.56e-6,"MEAN_MOTION_DDOT":0},{"OBJECT_NAME":"OBJECT A","OBJECT_ID":"2023-085A","EPOCH":"2026-03-09T21:42:39.504096","MEAN_MOTION":15.28003151,"ECCENTRICITY":0.00073195,"INCLINATION":97.4858,"RA_OF_ASC_NODE":178.2033,"ARG_OF_PERICENTER":32.2499,"MEAN_ANOMALY":327.9186,"EPHEMERIS_TYPE":0,"CLASSIFICATION_TYPE":"U","NORAD_CAT_ID":57004,"ELEMENT_SET_NO":999,"REV_AT_EPOCH":15139,"BSTAR":0.00063583858,"MEAN_MOTION_DOT":0.0001733,"MEAN_MOTION_DDOT":0}]
